[{"OBJECT_NAME":"STARLINK-1669","OBJECT_ID":"2021-012E","EPOCH":"2026-03-09T22:00:01.999584","MEAN_MOTION":15.7520865,"ECCENTRICITY":0.00087944,"INCLINATION":53.0368,"RA_OF_ASC_NODE":350.7855,"ARG_OF_PERICENTER":92.6287,"MEAN_ANOMALY":29.9444,"EPHEMERIS_TYPE":0,"CLASSIFICATION_TYPE":"U","NORAD_CAT_ID":47624,"ELEMENT_SET_NO":999,"REV_AT_EPOCH":578,"BSTAR":0.0017201852,"MEAN_MOTION_DOT":0.00271838,"MEAN_MOTION_DDOT":0},{"OBJECT_NAME":"STARLINK-36856","OBJECT_ID":"2026-035E","EPOCH":"2026-03-09T22:00:01.999584","MEAN_MOTION":15.87108226,"ECCENTRICITY":0.00010775,"INCLINATION":97.2727,"RA_OF_ASC_NODE":1.2609,"ARG_OF_PERICENTER":86.5164,"MEAN_ANOMALY":326.6387,"EPHEMERIS_TYPE":0,"CLASSIFICATION_TYPE":"U","NORAD_CAT_ID":67883,"ELEMENT_SET_NO":999,"REV_AT_EPOCH":379,"BSTAR":-0.0052706142,"MEAN_MOTION_DOT":-0.01211483,"MEAN_MOTION_DDOT":0}]
